[{"OBJECT_NAME":"STARLINK-5475","OBJECT_ID":"2023-021AK","EPOCH":"2026-03-09T22:57:25.060320","MEAN_MOTION":14.98345501,"ECCENTRICITY":0.00035161,"INCLINATION":70.0003,"RA_OF_ASC_NODE":163.821,"ARG_OF_PERICENTER":272.1774,"MEAN_ANOMALY":87.8983,"EPHEMERIS_TYPE":0,"CLASSIFICATION_TYPE":"U","NORAD_CAT_ID":55661,"ELEMENT_SET_NO":999,"REV_AT_EPOCH":16932,"BSTAR":-0.00026487286,"MEAN_MOTION_DOT":-3.253e-5,"MEAN_MOTION_DDOT":0},{"OBJECT_NAME":"SITRO-AIS 24","OBJECT_ID":"2024-199G","EPOCH":"2026-03-09T22:55:13.311552","MEAN_MOTION":14.95574575,"ECCENTRICITY":0.00134035,"INCLINATION":97.3325,"RA_OF_ASC_NODE":273.3822,"ARG_OF_PERICENTER":42.6191,"MEAN_ANOMALY":317.6069,"EPHEMERIS_TYPE":0,"CLASSIFICATION_TYPE":"U","NORAD_CAT_ID":61741,"ELEMENT_SET_NO":999,"REV_AT_EPOCH":11705,"BSTAR":0.00037285708,"MEAN_MOTION_DOT":4.091e-5,"MEAN_MOTION_DDOT":0}]
